{"name":"NOAA-15","line1":"1 25338U 98030A   18138.57842156  .00000050  00000-0  39715-4 0  9994","line2":"2 25338  98.7708 154.9888 0009612 318.1910  41.8535 14.25852156 40544","updated_at": {"$date": 1526724563836},"created_at": {"$date": 1526724563836}}
{"name":"MSG-1","line1":"1 27509U 02040B   18138.38708757  .00000132  00000-0  00000-0 0  9991","line2":"2 27509   5.4179  57.0814 0001891 356.0374   3.7423  1.00278474 57669","updated_at": {"$date": 1526724563836},"created_at": {"$date": 1526724563836}}
{"name":"NOAA-18","line1":"1 28654U 05018A   18138.56530743 -.00000025  00000-0  11803-4 0  9998","line2":"2 28654  99.1476 173.4117 0013921 206.6565 153.3892 14.12375771669508","updated_at": {"$date": 1526724563836},"created_at": {"$date": 1526724563836}}
{"name":"MSG-2","line1":"1 28912U 05049B   18138.32299284  .00000012  00000-0  00000-0 0  9993","line2":"2 28912   2.8653  71.6637 0000696 248.4498  35.5974  1.00265567 45473","updated_at": {"$date": 1526724563836},"created_at": {"$date": 1526724563836}}
{"name":"HIMAWARI-7","line1":"1 28937U 06004A   18139.14083403 -.00000253  00000-0  00000+0 0  9994","line2":"2 28937   0.0212 208.8170 0003861 218.2892   5.3557  1.00270958 44760","updated_at": {"$date": 1526724563836},"created_at": {"$date": 1526724563836}}
{"name":"NOAA-20","line1":"1 43013U 17073A   18138.61481166  .00000002  00000-0  21599-4 0  9995","line2":"2 43013  98.7240  77.3521 0001077  70.3653 289.7639 14.19558689 25712","updated_at": {"$date": 1526724563836},"created_at": {"$date": 1526724563836}}
